{"type": "FeatureCollection", "features": [ {"type": "Feature", "properties": {"norad_id": 66959, "name": "STARLINK-35887", "group": "last-30-days", "lat": -42.918915216208966, "lon": 1.77535450030759, "alt_km": 364.6004172455687, "timestamp": "2025-12-24T11:32:58.720848+00:00", "meta": {"OBJECT_NAME": "STARLINK-35887", "OBJECT_ID": "2025-288A", "EPOCH": "2025-12-24T04:00:01.998720", "MEAN_MOTION": 15.70163933, "ECCENTRICITY": 0.0001328, "INCLINATION": 43, "RA_OF_ASC_NODE": 97.39, "ARG_OF_PERICENTER": 273.4295, "MEAN_ANOMALY": 14.4468, "EPHEMERIS_TYPE": 0, "CLASSIFICATION_TYPE": "U", "NORAD_CAT_ID": 66959, "ELEMENT_SET_NO": 999, "REV_AT_EPOCH": 366, "BSTAR": -0.017517, "MEAN_MOTION_DOT": -0.01934792, "MEAN_MOTION_DDOT": 0}, "tle": {"line1": "1 66959U 25288A   25358.16668980 -.01934792  00000+0 -17517-1 0  9995", "line2": "2 66959  43.0000  97.3900 0001328 273.4295  14.4468 15.70163933  3668"}}, "geometry": {"type": "Point", "coordinates": [1.77535450030759, -42.918915216208966]}}, {"type": "Feature", "properties": {"norad_id": 66960, "name": "STARLINK-35879", "group": "last-30-days", "lat": -42.973900715850164, "lon": 4.384591347082963, "alt_km": 364.5205921614488, "timestamp": "2025-12-24T11:32:58.720859+00:00", "meta": {"OBJECT_NAME": "STARLINK-35879", "OBJECT_ID": "2025-288B", "EPOCH": "2025-12-24T04:00:01.998720", "MEAN_MOTION": 15.70160353, "ECCENTRICITY": 0.0001405, "INCLINATION": 43, "RA_OF_ASC_NODE": 97.3847, "ARG_OF_PERICENTER": 266.7279, "MEAN_ANOMALY": 23.0621, "EPHEMERIS_TYPE": 0, "CLASSIFICATION_TYPE": "U", "NORAD_CAT_ID": 66960, "ELEMENT_SET_NO": 999, "REV_AT_EPOCH": 366, "BSTAR": -0.017404, "MEAN_MOTION_DOT": -0.0192356, "MEAN_MOTION_DDOT": 0}, "tle": {"line1": "1 66960U 25288B   25358.16668980 -.01923560  00000+0 -17404-1 0  9993", "line2": "2 66960  43.0000  97.3847 0001405 266.7279  23.0621 15.70160353  3663"}}, "geometry": {"type": "Point", "coordinates": [4.384591347082963, -42.973900715850164]}}, {"type": "Feature", "properties": {"norad_id": 66961, "name": "STARLINK-35761", "group": "last-30-days", "lat": -42.96963243465403, "lon": 6.99571004432366, "alt_km": 364.48636204214836, "timestamp": "2025-12-24T11:32:58.720869+00:00", "meta": {"OBJECT_NAME": "STARLINK-35761", "OBJECT_ID": "2025-288C", "EPOCH": "2025-12-24T04:00:01.998720", "MEAN_MOTION": 15.70154388, "ECCENTRICITY": 0.0001448, "INCLINATION": 43.0003, "RA_OF_ASC_NODE": 97.3805, "ARG_OF_PERICENTER": 264.8804, "MEAN_ANOMALY": 26.8265, "EPHEMERIS_TYPE": 0, "CLASSIFICATION_TYPE": "U", "NORAD_CAT_ID": 66961, "ELEMENT_SET_NO": 999, "REV_AT_EPOCH": 366, "BSTAR": -0.017288, "MEAN_MOTION_DOT": -0.01911853, "MEAN_MOTION_DDOT": 0}, "tle": {"line1": "1 66961U 25288C   25358.16668980 -.01911853  00000+0 -17288-1 0  9996", "line2": "2 66961  43.0003  97.3805 0001448 264.8804  26.8265 15.70154388  3667"}}, "geometry": {"type": "Point", "coordinates": [6.99571004432366, -42.96963243465403]}}, {"type": "Feature", "properties": {"norad_id": 66962, "name": "STARLINK-35874", "group": "last-30-days", "lat": -42.905186964202535, "lon": 9.608089246316936, "alt_km": 364.5803275488179, "timestamp": "2025-12-24T11:32:58.720879+00:00", "meta": {"OBJECT_NAME": "STARLINK-35874", "OBJECT_ID": "2025-288D", "EPOCH": "2025-12-24T04:00:01.998720", "MEAN_MOTION": 15.70152625, "ECCENTRICITY": 0.0001335, "INCLINATION": 43.0001, "RA_OF_ASC_NODE": 97.3753, "ARG_OF_PERICENTER": 263.525, "MEAN_ANOMALY": 30.1047, "EPHEMERIS_TYPE": 0, "CLASSIFICATION_TYPE": "U", "NORAD_CAT_ID": 66962, "ELEMENT_SET_NO": 999, "REV_AT_EPOCH": 366, "BSTAR": -0.017322, "MEAN_MOTION_DOT": -0.01914977, "MEAN_MOTION_DDOT": 0}, "tle": {"line1": "1 66962U 25288D   25358.16668980 -.01914977  00000+0 -17322-1 0  9996", "line2": "2 66962  43.0001  97.3753 0001335 263.5250  30.1047 15.70152625  3662"}}, "geometry": {"type": "Point", "coordinates": [9.608089246316936, -42.905186964202535]}}, {"type": "Feature", "properties": {"norad_id": 66963, "name": "STARLINK-36133", "group": "last-30-days", "lat": -42.78129997970668, "lon": 12.214295938134022, "alt_km": 364.4971833033951, "timestamp": "2025-12-24T11:32:58.720891+00:00", "meta": {"OBJECT_NAME": "STARLINK-36133", "OBJECT_ID": "2025-288E", "EPOCH": "2025-12-24T04:00:01.998720", "MEAN_MOTION": 15.70172039, "ECCENTRICITY": 0.0001455, "INCLINATION": 43, "RA_OF_ASC_NODE": 97.3707, "ARG_OF_PERICENTER": 264.7919, "MEAN_ANOMALY": 30.7488, "EPHEMERIS_TYPE": 0, "CLASSIFICATION_TYPE": "U", "NORAD_CAT_ID": 66963, "ELEMENT_SET_NO": 999, "REV_AT_EPOCH": 366, "BSTAR": -0.017589, "MEAN_MOTION_DOT": -0.01942503, "MEAN_MOTION_DDOT": 0}, "tle": {"line1": "1 66963U 25288E   25358.16668980 -.01942503  00000+0 -17589-1 0  9998", "line2": "2 66963  43.0000  97.3707 0001455 264.7919  30.7488 15.70172039  3665"}}, "geometry": {"type": "Point", "coordinates": [12.214295938134022, -42.78129997970668]}}, {"type": "Feature", "properties": {"norad_id": 66964, "name": "STARLINK-36104", "group": "last-30-days", "lat": -42.599846612119855, "lon": 14.792811404095021, "alt_km": 364.4615338955937, "timestamp": "2025-12-24T11:32:58.720901+00:00", "meta": {"OBJECT_NAME": "STARLINK-36104", "OBJECT_ID": "2025-288F", "EPOCH": "2025-12-24T04:00:01.998720", "MEAN_MOTION": 15.70160706, "ECCENTRICITY": 0.0001476, "INCLINATION": 43.0002, "RA_OF_ASC_NODE": 97.3655, "ARG_OF_PERICENTER": 269.0637, "MEAN_ANOMALY": 28.3932, "EPHEMERIS_TYPE": 0, "CLASSIFICATION_TYPE": "U", "NORAD_CAT_ID": 66964, "ELEMENT_SET_NO": 999, "REV_AT_EPOCH": 366, "BSTAR": -0.017401, "MEAN_MOTION_DOT": -0.01923389, "MEAN_MOTION_DDOT": 0}, "tle": {"line1": "1 66964U 25288F   25358.16668980 -.01923389  00000+0 -17401-1 0  9993", "line2": "2 66964  43.0002  97.3655 0001476 269.0637  28.3932 15.70160706  3663"}}, "geometry": {"type": "Point", "coordinates": [14.792811404095021, -42.599846612119855]}}, {"type": "Feature", "properties": {"norad_id": 66965, "name": "STARLINK-36067", "group": "last-30-days", "lat": -42.359143202336895, "lon": 17.36821216641644, "alt_km": 364.4548497183341, "timestamp": "2025-12-24T11:32:58.720911+00:00", "meta": {"OBJECT_NAME": "STARLINK-36067", "OBJECT_ID": "2025-288G", "EPOCH": "2025-12-24T04:00:01.998720", "MEAN_MOTION": 15.70166542, "ECCENTRICITY": 0.0001486, "INCLINATION": 43.0002, "RA_OF_ASC_NODE": 97.3615, "ARG_OF_PERICENTER": 268.1049, "MEAN_ANOMALY": 31.2688, "EPHEMERIS_TYPE": 0, "CLASSIFICATION_TYPE": "U", "NORAD_CAT_ID": 66965, "ELEMENT_SET_NO": 999, "REV_AT_EPOCH": 366, "BSTAR": -0.017489, "MEAN_MOTION_DOT": -0.01932421, "MEAN_MOTION_DDOT": 0}, "tle": {"line1": "1 66965U 25288G   25358.16668980 -.01932421  00000+0 -17489-1 0  9997", "line2": "2 66965  43.0002  97.3615 0001486 268.1049  31.2688 15.70166542  3663"}}, "geometry": {"type": "Point", "coordinates": [17.36821216641644, -42.359143202336895]}}, {"type": "Feature", "properties": {"norad_id": 66966, "name": "STARLINK-36139", "group": "last-30-days", "lat": -42.06126385421943, "lon": 19.91748717710634, "alt_km": 364.3915003670745, "timestamp": "2025-12-24T11:32:58.720923+00:00", "meta": {"OBJECT_NAME": "STARLINK-36139", "OBJECT_ID": "2025-288H", "EPOCH": "2025-12-24T04:00:01.998720", "MEAN_MOTION": 15.70163886, "ECCENTRICITY": 0.0001571, "INCLINATION": 43, "RA_OF_ASC_NODE": 97.3562, "ARG_OF_PERICENTER": 269.7299, "MEAN_ANOMALY": 31.5647, "EPHEMERIS_TYPE": 0, "CLASSIFICATION_TYPE": "U", "NORAD_CAT_ID": 66966, "ELEMENT_SET_NO": 999, "REV_AT_EPOCH": 366, "BSTAR": -0.017483, "MEAN_MOTION_DOT": -0.01931695, "MEAN_MOTION_DDOT": 0}, "tle": {"line1": "1 66966U 25288H   25358.16668980 -.01931695  00000+0 -17483-1 0  9994", "line2": "2 66966  43.0000  97.3562 0001571 269.7299  31.5647 15.70163886  3668"}}, "geometry": {"type": "Point", "coordinates": [19.91748717710634, -42.06126385421943]}}, {"type": "Feature", "properties": {"norad_id": 66967, "name": "STARLINK-36136", "group": "last-30-days", "lat": -41.707702621331805, "lon": 22.439487719486017, "alt_km": 364.4329887358581, "timestamp": "2025-12-24T11:32:58.720934+00:00", "meta": {"OBJECT_NAME": "STARLINK-36136", "OBJECT_ID": "2025-288J", "EPOCH": "2025-12-24T04:00:01.998720", "MEAN_MOTION": 15.70158237, "ECCENTRICITY": 0.0001506, "INCLINATION": 42.9999, "RA_OF_ASC_NODE": 97.3517, "ARG_OF_PERICENTER": 268.524, "MEAN_ANOMALY": 34.6893, "EPHEMERIS_TYPE": 0, "CLASSIFICATION_TYPE": "U", "NORAD_CAT_ID": 66967, "ELEMENT_SET_NO": 999, "REV_AT_EPOCH": 366, "BSTAR": -0.017405, "MEAN_MOTION_DOT": -0.01923594, "MEAN_MOTION_DDOT": 0}, "tle": {"line1": "1 66967U 25288J   25358.16668980 -.01923594  00000+0 -17405-1 0  9998", "line2": "2 66967  42.9999  97.3517 0001506 268.5240  34.6893 15.70158237  3666"}}, "geometry": {"type": "Point", "coordinates": [22.439487719486017, -41.707702621331805]}}, {"type": "Feature", "properties": {"norad_id": 66968, "name": "STARLINK-36152", "group": "last-30-days", "lat": -41.29949583276092, "lon": 24.931764092956435, "alt_km": 364.47521317892733, "timestamp": "2025-12-24T11:32:58.720956+00:00", "meta": {"OBJECT_NAME": "STARLINK-36152", "OBJECT_ID": "2025-288K", "EPOCH": "2025-12-24T04:00:01.998720", "MEAN_MOTION": 15.70162412, "ECCENTRICITY": 0.0001433, "INCLINATION": 43, "RA_OF_ASC_NODE": 97.3464, "ARG_OF_PERICENTER": 267.8358, "MEAN_ANOMALY": 37.2914, "EPHEMERIS_TYPE": 0, "CLASSIFICATION_TYPE": "U", "NORAD_CAT_ID": 66968, "ELEMENT_SET_NO": 999, "REV_AT_EPOCH": 366, "BSTAR": -0.017447, "MEAN_MOTION_DOT": -0.01927924, "MEAN_MOTION_DDOT": 0}, "tle": {"line1": "1 66968U 25288K   25358.16668980 -.01927924  00000+0 -17447-1 0  9996", "line2": "2 66968  43.0000  97.3464 0001433 267.8358  37.2914 15.70162412  3667"}}, "geometry": {"type": "Point", "coordinates": [24.931764092956435, -41.29949583276092]}}]}